IRIDIUM 173             
1 43925U 19002D   26032.97531154  .00000023  00000+0  10809-5 0  9990
2 43925  86.3923  50.0745 0002354  89.2136 270.9330 14.34217014369571
IRIDIUM 169             
1 43926U 19002E   26032.61849566  .00000328  00000+0  10083-3 0  9991
2 43926  86.4182  81.8883 0002843  79.4245 280.7273 14.38607925370733
IRIDIUM 172             
1 43927U 19002F   26032.96896898 -.00000018  00000+0 -13414-4 0  9990
2 43927  86.3922  50.0846 0002138  95.6479 264.4961 14.34216884369588
IRIDIUM 175             
1 43928U 19002G   26032.89861925  .00001147  00000+0  17792-3 0  9990
2 43928  86.1533 349.6317 0001411  66.0705 294.0659 14.72243881379338
IRIDIUM 171             
1 43929U 19002H   26032.94994012  .00000154  00000+0  47894-4 0  9995
2 43929  86.3934  50.3842 0002078  86.6879 273.4554 14.34218679369570
IRIDIUM 170             
1 43930U 19002J   26032.97741073  .00000406  00000+0  60473-4 0  9995
2 43930  86.6046  50.0720 0002339  92.8437 267.3048 14.72244305379365
IRIDIUM 167             
1 43931U 19002K   26032.94358770  .00000157  00000+0  49015-4 0  9993
2 43931  86.3924  50.1165 0002133  80.6205 279.5231 14.34217821369574
IRIDIUM 181             
1 56726U 23068S   26032.77548515  .00000397  00000+0  11202-3 0  9997
2 56726  86.4512 113.4159 0001930 104.8712 255.2703 14.43311161142909
IRIDIUM 177             
1 56727U 23068T   26032.98416159  .00000599  00000+0  75347-4 0  9994
2 56727  86.1945  32.9786 0002404  88.3044 271.8452 14.80230366146366
IRIDIUM 174             
1 56728U 23068U   26032.96503262  .00000439  00000+0  65710-4 0  9991
2 56728  86.6056  50.2110 0002519  93.3751 266.7754 14.72243687146120
IRIDIUM 178             
1 56729U 23068V   26032.63527988  .00001264  00000+0  16290-3 0  9992
2 56729  86.6499  82.0278 0002022  80.7752 279.3698 14.80225517146319
IRIDIUM 179             
1 56730U 23068W   26032.69750357  .00001262  00000+0  16270-3 0  9994
2 56730  86.6748  90.5836 0002248  90.7005 269.4474 14.80229614146329
