[{"OBJECT_NAME":"IRIDIUM 173","OBJECT_ID":"2019-002D","EPOCH":"2026-02-01T23:24:26.917056","MEAN_MOTION":14.34217014,"ECCENTRICITY":0.00023543,"INCLINATION":86.3923,"RA_OF_ASC_NODE":50.0745,"ARG_OF_PERICENTER":89.2136,"MEAN_ANOMALY":270.933,"EPHEMERIS_TYPE":0,"CLASSIFICATION_TYPE":"U","NORAD_CAT_ID":43925,"ELEMENT_SET_NO":999,"REV_AT_EPOCH":36957,"BSTAR":1.080923e-6,"MEAN_MOTION_DOT":2.3e-7,"MEAN_MOTION_DDOT":0},{"OBJECT_NAME":"IRIDIUM 169","OBJECT_ID":"2019-002E","EPOCH":"2026-02-01T14:50:38.025024","MEAN_MOTION":14.38607925,"ECCENTRICITY":0.00028431,"INCLINATION":86.4182,"RA_OF_ASC_NODE":81.8883,"ARG_OF_PERICENTER":79.4245,"MEAN_ANOMALY":280.7273,"EPHEMERIS_TYPE":0,"CLASSIFICATION_TYPE":"U","NORAD_CAT_ID":43926,"ELEMENT_SET_NO":999,"REV_AT_EPOCH":37073,"BSTAR":0.00010083063,"MEAN_MOTION_DOT":3.28e-6,"MEAN_MOTION_DDOT":0},{"OBJECT_NAME":"IRIDIUM 172","OBJECT_ID":"2019-002F","EPOCH":"2026-02-01T23:15:18.919872","MEAN_MOTION":14.34216884,"ECCENTRICITY":0.00021386,"INCLINATION":86.3922,"RA_OF_ASC_NODE":50.0846,"ARG_OF_PERICENTER":95.6479,"MEAN_ANOMALY":264.4961,"EPHEMERIS_TYPE":0,"CLASSIFICATION_TYPE":"U","NORAD_CAT_ID":43927,"ELEMENT_SET_NO":999,"REV_AT_EPOCH":36958,"BSTAR":-1.3414338e-5,"MEAN_MOTION_DOT":-1.8e-7,"MEAN_MOTION_DDOT":0},{"OBJECT_NAME":"IRIDIUM 175","OBJECT_ID":"2019-002G","EPOCH":"2026-02-01T21:34:00.703200","MEAN_MOTION":14.72243881,"ECCENTRICITY":0.0001411,"INCLINATION":86.1533,"RA_OF_ASC_NODE":349.6317,"ARG_OF_PERICENTER":66.0705,"MEAN_ANOMALY":294.0659,"EPHEMERIS_TYPE":0,"CLASSIFICATION_TYPE":"U","NORAD_CAT_ID":43928,"ELEMENT_SET_NO":999,"REV_AT_EPOCH":37933,"BSTAR":0.00017791963,"MEAN_MOTION_DOT":1.147e-5,"MEAN_MOTION_DDOT":0},{"OBJECT_NAME":"IRIDIUM 171","OBJECT_ID":"2019-002H","EPOCH":"2026-02-01T22:47:54.826368","MEAN_MOTION":14.34218679,"ECCENTRICITY":0.00020789,"INCLINATION":86.3934,"RA_OF_ASC_NODE":50.3842,"ARG_OF_PERICENTER":86.6879,"MEAN_ANOMALY":273.4554,"EPHEMERIS_TYPE":0,"CLASSIFICATION_TYPE":"U","NORAD_CAT_ID":43929,"ELEMENT_SET_NO":999,"REV_AT_EPOCH":36957,"BSTAR":4.7893649e-5,"MEAN_MOTION_DOT":1.54e-6,"MEAN_MOTION_DDOT":0},{"OBJECT_NAME":"IRIDIUM 170","OBJECT_ID":"2019-002J","EPOCH":"2026-02-01T23:27:28.287072","MEAN_MOTION":14.72244305,"ECCENTRICITY":0.00023397,"INCLINATION":86.6046,"RA_OF_ASC_NODE":50.072,"ARG_OF_PERICENTER":92.8437,"MEAN_ANOMALY":267.3048,"EPHEMERIS_TYPE":0,"CLASSIFICATION_TYPE":"U","NORAD_CAT_ID":43930,"ELEMENT_SET_NO":999,"REV_AT_EPOCH":37936,"BSTAR":6.0472895e-5,"MEAN_MOTION_DOT":4.06e-6,"MEAN_MOTION_DDOT":0},{"OBJECT_NAME":"IRIDIUM 167","OBJECT_ID":"2019-002K","EPOCH":"2026-02-01T22:38:45.977280","MEAN_MOTION":14.34217821,"ECCENTRICITY":0.00021334,"INCLINATION":86.3924,"RA_OF_ASC_NODE":50.1165,"ARG_OF_PERICENTER":80.6205,"MEAN_ANOMALY":279.5231,"EPHEMERIS_TYPE":0,"CLASSIFICATION_TYPE":"U","NORAD_CAT_ID":43931,"ELEMENT_SET_NO":999,"REV_AT_EPOCH":36957,"BSTAR":4.9015101e-5,"MEAN_MOTION_DOT":1.57e-6,"MEAN_MOTION_DDOT":0},{"OBJECT_NAME":"IRIDIUM 181","OBJECT_ID":"2023-068S","EPOCH":"2026-02-01T18:36:41.916960","MEAN_MOTION":14.43311161,"ECCENTRICITY":0.00019303,"INCLINATION":86.4512,"RA_OF_ASC_NODE":113.4159,"ARG_OF_PERICENTER":104.8712,"MEAN_ANOMALY":255.2703,"EPHEMERIS_TYPE":0,"CLASSIFICATION_TYPE":"U","NORAD_CAT_ID":56726,"ELEMENT_SET_NO":999,"REV_AT_EPOCH":14290,"BSTAR":0.00011202279,"MEAN_MOTION_DOT":3.97e-6,"MEAN_MOTION_DDOT":0},{"OBJECT_NAME":"IRIDIUM 177","OBJECT_ID":"2023-068T","EPOCH":"2026-02-01T23:37:11.561376","MEAN_MOTION":14.80230366,"ECCENTRICITY":0.00024041,"INCLINATION":86.1945,"RA_OF_ASC_NODE":32.9786,"ARG_OF_PERICENTER":88.3044,"MEAN_ANOMALY":271.8452,"EPHEMERIS_TYPE":0,"CLASSIFICATION_TYPE":"U","NORAD_CAT_ID":56727,"ELEMENT_SET_NO":999,"REV_AT_EPOCH":14636,"BSTAR":7.534699e-5,"MEAN_MOTION_DOT":5.99e-6,"MEAN_MOTION_DDOT":0},{"OBJECT_NAME":"IRIDIUM 174","OBJECT_ID":"2023-068U","EPOCH":"2026-02-01T23:09:38.818368","MEAN_MOTION":14.72243687,"ECCENTRICITY":0.00025198,"INCLINATION":86.6056,"RA_OF_ASC_NODE":50.211,"ARG_OF_PERICENTER":93.3751,"MEAN_ANOMALY":266.7754,"EPHEMERIS_TYPE":0,"CLASSIFICATION_TYPE":"U","NORAD_CAT_ID":56728,"ELEMENT_SET_NO":999,"REV_AT_EPOCH":14612,"BSTAR":6.5710399e-5,"MEAN_MOTION_DOT":4.39e-6,"MEAN_MOTION_DDOT":0},{"OBJECT_NAME":"IRIDIUM 178","OBJECT_ID":"2023-068V","EPOCH":"2026-02-01T15:14:48.181632","MEAN_MOTION":14.80225517,"ECCENTRICITY":0.00020229,"INCLINATION":86.6499,"RA_OF_ASC_NODE":82.0278,"ARG_OF_PERICENTER":80.7752,"MEAN_ANOMALY":279.3698,"EPHEMERIS_TYPE":0,"CLASSIFICATION_TYPE":"U","NORAD_CAT_ID":56729,"ELEMENT_SET_NO":999,"REV_AT_EPOCH":14631,"BSTAR":0.00016290094,"MEAN_MOTION_DOT":1.264e-5,"MEAN_MOTION_DDOT":0},{"OBJECT_NAME":"IRIDIUM 179","OBJECT_ID":"2023-068W","EPOCH":"2026-02-01T16:44:24.308448","MEAN_MOTION":14.80229614,"ECCENTRICITY":0.0002248,"INCLINATION":86.6748,"RA_OF_ASC_NODE":90.5836,"ARG_OF_PERICENTER":90.7005,"MEAN_ANOMALY":269.4474,"EPHEMERIS_TYPE":0,"CLASSIFICATION_TYPE":"U","NORAD_CAT_ID":56730,"ELEMENT_SET_NO":999,"REV_AT_EPOCH":14632,"BSTAR":0.00016269911,"MEAN_MOTION_DOT":1.262e-5,"MEAN_MOTION_DDOT":0}]
